GLOBALSTAR M024 [-]     
1 25883U 99043A   24110.75008354 -.00000078  00000+0 -45216-3 0  9998
2 25883  52.0016 256.0348 0002241 127.5862 341.6463 11.10161235 67832
GLOBALSTAR M027 [-]     
1 25884U 99043B   24111.53083748 -.00000006  00000+0  21691-2 0  9996
2 25884  52.0225 320.2851 0021729  30.5762 329.6293 11.04368296 94580
GLOBALSTAR M054 [-]     
1 25885U 99043C   24110.52484437 -.00000115  00000+0 -11058-2 0  9993
2 25885  52.0113 160.9196 0004915 170.4573 337.7884 11.39202438 70763
GLOBALSTAR M053 [-]     
1 25886U 99043D   24110.39024883 -.00000048  00000+0  60180-3 0  9999
2 25886  51.9970  84.8213 0003422  79.2881  90.5923 11.27654594 71633
GLOBALSTAR M058 [-]     
1 25907U 99049A   24111.43188652 -.00000115  00000+0 -40604-3 0  9995
2 25907  51.9920 158.0210 0002573 184.0470 176.0344 11.93175908102281
GLOBALSTAR M050 [-]     
1 25908U 99049B   24111.54107589 -.00000033  00000+0  61728-3 0  9996
2 25908  51.9978 196.9802 0008817 266.7520 196.5563 12.07431860101865
GLOBALSTAR M033 [-]     
1 25909U 99049C   24110.38391569 -.00000064  00000+0  26560-3 0  9990
2 25909  51.9892 101.2614 0011720 118.2643 241.9389 12.20269875484006
GLOBALSTAR M055 [-]     
1 25910U 99049D   24111.32706083 -.00000021  00000+0  62326-3 0  9991
2 25910  51.9992 129.9339 0006909 333.9828  26.0676 12.29399583116499
